LANDSAT 9               
1 49260U 21088A   24140.19230523  .00001433  00000+0  32790-3 0  9990
2 49260  98.1878 210.3006 0001144  83.2106 276.9223 14.57113125140473
